NORAD_CAT_ID,OBJECT_NAME,OBJECT_TYPE,EPOCH,MEAN_MOTION,ECCENTRICITY,INCLINATION,RA_OF_ASC_NODE,ARG_OF_PERICENTER,MEAN_ANOMALY,BSTAR,MEAN_MOTION_DOT,MEAN_MOTION_DDOT,TLE_LINE0,TLE_LINE1,TLE_LINE2,SEMIMAJOR_AXIS,PERIOD,APOGEE,PERIGEE,DECAYED
49743.0,STARLINK-3239,PAYLOAD,2024-06-21 04:20:52,15.08836532,0.0001277,53.2181,81.5612,88.9546,271.1592,8.4456e-05,1.056e-05,0.0,0 STARLINK-3239,1 49743U 21115V   24173.18116513  .00001056  00000-0  84456-4 0  9993,2 49743  53.2181  81.5612 0001277  88.9546 271.1592 15.08836532142060,6917.891,95.438,540.639,538.873,0.0
49743.0,STARLINK-3239,PAYLOAD,2024-06-21 21:50:07,15.08838648,0.0001263,53.218,78.2902,100.326,259.7874,2.9964e-05,1.89e-06,0.0,0 STARLINK-3239,1 49743U 21115V   24173.90980731  .00000189  00000-0  29964-4 0  9993,2 49743  53.2180  78.2902 0001263 100.3260 259.7874 15.08838648141065,6917.885,95.438,540.623,538.876,0.0
49743.0,STARLINK-3239,PAYLOAD,2024-06-22 01:00:53,15.0883975,0.0001239,53.2178,77.6955,98.7641,261.3491,3.7304e-05,3.06e-06,0.0,0 STARLINK-3239,1 49743U 21115V   24174.04228685  .00000306  00000-0  37304-4 0  9990,2 49743  53.2178  77.6955 0001239  98.7641 261.3491 15.08839750141080,6917.881,95.438,540.603,538.889,0.0
49743.0,STARLINK-3239,PAYLOAD,2024-06-22 16:54:44,15.0883881,0.0001264,53.2177,74.7216,91.8072,268.3065,0.00019913,2.883e-05,0.0,0 STARLINK-3239,1 49743U 21115V   24174.70468499  .00002883  00000-0  19913-3 0  9999,2 49743  53.2177  74.7216 0001264  91.8072 268.3065 15.08838810142291,6917.884,95.438,540.623,538.875,0.0
49743.0,STARLINK-3239,PAYLOAD,2024-06-22 21:40:54,15.08839954,0.0001266,53.217,73.8297,90.0501,270.0637,0.00019165,2.764e-05,0.0,0 STARLINK-3239,1 49743U 21115V   24174.90340508  .00002764  00000-0  19165-3 0  9998,2 49743  53.2170  73.8297 0001266  90.0501 270.0637 15.08839954141219,6917.881,95.438,540.621,538.87,0.0
49743.0,STARLINK-3239,PAYLOAD,2024-06-23 02:27:03,15.0884473,0.0001221,53.217,72.9371,87.0334,273.0798,0.00019991,2.896e-05,0.0,0 STARLINK-3239,1 49743U 21115V   24175.10212291  .00002896  00000-0  19991-3 0  9991,2 49743  53.2170  72.9371 0001221  87.0334 273.0798 15.08844730141245,6917.866,95.437,540.576,538.886,0.0
49743.0,STARLINK-3239,PAYLOAD,2024-06-23 21:31:41,15.08844963,0.000127,53.217,69.3685,90.0764,270.0374,0.00015368,2.159e-05,0.0,0 STARLINK-3239,1 49743U 21115V   24175.89700246  .00002159  00000-0  15368-3 0  9995,2 49743  53.2170  69.3685 0001270  90.0764 270.0374 15.08844963142479,6917.865,95.437,540.609,538.852,0.0
49743.0,STARLINK-3239,PAYLOAD,2024-06-24 02:17:50,15.08848821,0.000132,53.2172,68.4762,89.6251,270.4893,0.00020058,2.907e-05,0.0,0 STARLINK-3239,1 49743U 21115V   24176.09572028  .00002907  00000-0  20058-3 0  9996,2 49743  53.2172  68.4762 0001320  89.6251 270.4893 15.08848821141395,6917.853,95.437,540.632,538.805,0.0
49743.0,STARLINK-3239,PAYLOAD,2024-06-24 21:22:27,15.08844228,0.0001424,53.217,64.9074,90.3511,269.7645,6.6396e-05,7.69e-06,0.0,0 STARLINK-3239,1 49743U 21115V   24176.89060123  .00000769  00000-0  66396-4 0  9992,2 49743  53.2170  64.9074 0001424  90.3511 269.7645 15.08844228141510,6917.867,95.437,540.718,538.747,0.0
49743.0,STARLINK-3239,PAYLOAD,2024-06-24 22:57:51,15.08843039,0.0001384,53.2171,64.6101,90.7766,269.3385,4.4376e-05,4.18e-06,0.0,0 STARLINK-3239,1 49743U 21115V   24176.95684152  .00000418  00000-0  44376-4 0  9998,2 49743  53.2171  64.6101 0001384  90.7766 269.3385 15.08843039142630,6917.871,95.437,540.694,538.779,0.0
49743.0,STARLINK-3239,PAYLOAD,2024-06-25 22:48:38,15.08843734,0.0001521,53.2181,60.1498,102.2586,257.8576,7.3896e-05,8.88e-06,0.0,0 STARLINK-3239,1 49743U 21115V   24177.95044030  .00000888  00000-0  73896-4 0  9994,2 49743  53.2181  60.1498 0001521 102.2586 257.8576 15.08843734141672,6917.869,95.437,540.786,538.682,0.0
49743.0,STARLINK-3239,PAYLOAD,2024-06-27 20:54:49,15.08835849,0.0001351,53.2177,51.5245,88.301,271.8137,3.9499e-05,3.41e-06,0.0,0 STARLINK-3239,1 49743U 21115V   24179.87140997  .00000341  00000-0  39499-4 0  9991,2 49743  53.2177  51.5245 0001351  88.3010 271.8137 15.08835849143071,6917.893,95.438,540.693,538.823,0.0
49743.0,STARLINK-3239,PAYLOAD,2024-06-27 22:30:12,15.08842053,0.0001208,53.2176,51.2301,89.1548,270.9583,6.5944e-05,7.62e-06,0.0,0 STARLINK-3239,1 49743U 21115V   24179.93764691  .00000762  00000-0  65944-4 0  9992,2 49743  53.2176  51.2301 0001208  89.1548 270.9583 15.08842053141973,6917.874,95.437,540.575,538.903,0.0
49743.0,STARLINK-3239,PAYLOAD,2024-06-28 22:20:59,15.08850558,0.0001285,53.2171,46.7706,98.1987,261.9151,0.00018806,2.707e-05,0.0,0 STARLINK-3239,1 49743U 21115V   24180.93124162  .00002707  00000-0  18806-3 0  9992,2 49743  53.2171  46.7706 0001285  98.1987 261.9151 15.08850558142126,6917.848,95.437,540.602,538.824,0.0
49743.0,STARLINK-3239,PAYLOAD,2024-06-29 14:14:51,15.0883989,0.0001325,53.2174,43.7977,99.5722,260.542,2.0898e-05,4.5e-07,0.0,0 STARLINK-3239,1 49743U 21115V   24181.59364693  .00000045  00000-0  20898-4 0  9998,2 49743  53.2174  43.7977 0001325  99.5722 260.5420 15.08839890142224,6917.881,95.438,540.662,538.829,0.0
49743.0,STARLINK-3239,PAYLOAD,2024-06-29 19:01:00,15.08833869,7.91e-05,53.2157,42.8966,126.6342,233.4723,-0.00013203,-2.388e-05,0.0,0 STARLINK-3239,1 49743U 21115V   24181.79236979 -.00002388  00000-0 -13203-3 0  9990,2 49743  53.2157  42.8966 0000791 126.6342 233.4723 15.08833869143360,6917.899,95.438,540.311,539.217,0.0
49743.0,STARLINK-3239,PAYLOAD,2024-06-29 22:11:47,15.08829954,9.62e-05,53.2157,42.3027,128.4778,231.63,-0.00016913,-2.978e-05,0.0,0 STARLINK-3239,1 49743U 21115V   24181.92485199 -.00002978  00000-0 -16913-3 0  9991,2 49743  53.2157  42.3027 0000962 128.4778 231.6300 15.08829954142276,6917.911,95.438,540.442,539.111,0.0
49743.0,STARLINK-3239,PAYLOAD,2024-06-30 01:22:33,15.08825585,0.0001051,53.2164,41.7129,120.6485,239.4611,-0.00018002,-3.15e-05,0.0,0 STARLINK-3239,1 49743U 21115V   24182.05733650 -.00003150  00000-0 -18002-3 0  9998,2 49743  53.2164  41.7129 0001051 120.6485 239.4611 15.08825585143402,6917.924,95.438,540.517,539.062,0.0
49743.0,STARLINK-3239,PAYLOAD,2024-06-30 14:05:38,15.08838322,7.98e-05,53.215,39.3361,121.0812,239.0259,-0.00018273,-3.194e-05,0.0,0 STARLINK-3239,1 49743U 21115V   24182.58725364 -.00003194  00000-0 -18273-3 0  9997,2 49743  53.2150  39.3361 0000798 121.0812 239.0259 15.08838322142376,6917.886,95.438,540.303,539.198,0.0
49743.0,STARLINK-3239,PAYLOAD,2024-06-30 20:27:11,15.08841353,9.69e-05,53.2161,38.1465,98.4172,261.693,3.1416e-05,2.12e-06,0.0,0 STARLINK-3239,1 49743U 21115V   24182.85221360  .00000212  00000-0  31416-4 0  9995,2 49743  53.2161  38.1465 0000969  98.4172 261.6930 15.08841353143529,6917.876,95.437,540.412,539.071,0.0
49743.0,STARLINK-3239,PAYLOAD,2024-06-30 22:02:34,15.08845841,0.0001176,53.2172,37.848,102.2349,257.8775,0.00013331,1.835e-05,0.0,0 STARLINK-3239,1 49743U 21115V   24182.91845153  .00001835  00000-0  13331-3 0  9991,2 49743  53.2172  37.8480 0001176 102.2349 257.8775 15.08845841142423,6917.863,95.437,540.541,538.914,0.0
49743.0,STARLINK-3239,PAYLOAD,2024-07-01 07:34:52,15.08856375,0.0001045,53.217,36.0616,109.1743,250.9362,0.00059267,9.161e-05,0.0,0 STARLINK-3239,1 49743U 21115V   24183.31588860  .00009161  00000-0  59267-3 0  9993,2 49743  53.2170  36.0616 0001045 109.1743 250.9362 15.08856375143591,6917.83,95.437,540.418,538.972,0.0
49743.0,STARLINK-3239,PAYLOAD,2024-07-01 13:56:25,15.08854252,0.0002442,53.2162,34.8732,92.5961,267.5311,0.00068446,0.00010626,0.0,0 STARLINK-3239,1 49743U 21115V   24183.58085554  .00010626  00000-0  68446-3 0  9991,2 49743  53.2162  34.8732 0002442  92.5961 267.5311 15.08854252142528,6917.837,95.437,541.391,538.012,0.0
49743.0,STARLINK-3239,PAYLOAD,2024-07-01 20:17:58,15.088488,0.000102,53.2165,33.6852,93.7391,266.3718,0.00031061,4.66e-05,0.0,0 STARLINK-3239,1 49743U 21115V   24183.84581314  .00004660  00000-0  31061-3 0  9999,2 49743  53.2165  33.6852 0001020  93.7391 266.3718 15.08848800143679,6917.853,95.437,540.424,539.013,0.0
49743.0,STARLINK-3239,PAYLOAD,2024-07-02 13:47:12,15.08856778,0.0002156,53.217,30.415,90.1363,269.9876,0.00079817,0.00012444,0.0,0 STARLINK-3239,1 49743U 21115V   24184.57445331  .00012444  00000-0  79817-3 0  9998,2 49743  53.2170  30.4150 0002156  90.1363 269.9876 15.08856778142678,6917.829,95.436,541.186,538.203,0.0
49743.0,STARLINK-3239,PAYLOAD,2024-07-02 20:08:45,15.08838458,9.27e-05,53.2171,29.2251,108.783,251.3263,0.0012895,0.00020293,0.0,0 STARLINK-3239,1 49743U 21115V   24184.83941318  .00020293  00000-0  12895-2 0  9996,2 49743  53.2171  29.2251 0000927 108.7830 251.3263 15.08838458143824,6917.885,95.438,540.391,539.109,0.0
49743.0,STARLINK-3239,PAYLOAD,2024-07-03 13:37:59,15.08852986,0.0001656,53.2165,25.9543,90.1563,269.9619,0.00090058,0.00014079,0.0,0 STARLINK-3239,1 49743U 21115V   24185.56805395  .00014079  00000-0  90058-3 0  9994,2 49743  53.2165  25.9543 0001656  90.1563 269.9619 15.08852986143935,6917.841,95.437,540.851,538.56,0.0
49743.0,STARLINK-3239,PAYLOAD,2024-07-03 19:59:32,15.08847468,0.0001017,53.2171,24.7651,93.6361,266.4748,0.00044202,6.755e-05,0.0,0 STARLINK-3239,1 49743U 21115V   24185.83301273  .00006755  00000-0  44202-3 0  9992,2 49743  53.2171  24.7651 0001017  93.6361 266.4748 15.08847468143972,6917.858,95.437,540.426,539.019,0.0
49743.0,STARLINK-3239,PAYLOAD,2024-07-04 13:28:46,15.08844975,0.0001193,53.2182,21.4942,96.1917,263.9211,0.00038511,5.847e-05,0.0,0 STARLINK-3239,1 49743U 21115V   24186.56165396  .00005847  00000-0  38511-3 0  9994,2 49743  53.2182  21.4942 0001193  96.1917 263.9211 15.08844975144081,6917.865,95.437,540.555,538.905,0.0
49743.0,STARLINK-3239,PAYLOAD,2024-07-04 19:50:19,15.0884111,9.47e-05,53.2178,20.3058,86.9902,273.1198,0.00012876,1.762e-05,0.0,0 STARLINK-3239,1 49743U 21115V   24186.82661473  .00001762  00000-0  12876-3 0  9998,2 49743  53.2178  20.3058 0000947  86.9902 273.1198 15.08841110143016,6917.877,95.437,540.397,539.087,0.0
